{
    "links": {
        "self": "http://www.neowsapp.com/rest/v1/neo/3766176?api_key=iIulBulltgU6a56xZRHN4H3l9WmuAYTsLGpBGhQ2"
    },
    "id": "3766176",
    "neo_reference_id": "3766176",
    "name": "(2016 YJ8)",
    "designation": "2016 YJ8",
    "nasa_jpl_url": "http://ssd.jpl.nasa.gov/sbdb.cgi?sstr=3766176",
    "absolute_magnitude_h": 23.8,
    "estimated_diameter": {
        "kilometers": {
            "estimated_diameter_min": 0.046190746,
            "estimated_diameter_max": 0.1032856481
        },
        "meters": {
            "estimated_diameter_min": 46.1907460282,
            "estimated_diameter_max": 103.2856480504
        },
        "miles": {
            "estimated_diameter_min": 0.0287015901,
            "estimated_diameter_max": 0.0641787064
        },
        "feet": {
            "estimated_diameter_min": 151.544447199,
            "estimated_diameter_max": 338.8636855496
        }
    },
    "is_potentially_hazardous_asteroid": false,
    "close_approach_data": [
        {
            "close_approach_date": "2003-01-23",
            "close_approach_date_full": "2003-Jan-23 10:14",
            "epoch_date_close_approach": 1043316840000,
            "relative_velocity": {
                "kilometers_per_second": "15.2126437788",
                "kilometers_per_hour": "54765.5176036195",
                "miles_per_hour": "34029.1628687601"
            },
            "miss_distance": {
                "astronomical": "0.4347749289",
                "lunar": "169.1274473421",
                "kilometers": "65041403.292841443",
                "miles": "40414853.9444921934"
            },
            "orbiting_body": "Earth"
        },
        {
            "close_approach_date": "2017-01-06",
            "close_approach_date_full": "2017-Jan-06 00:25",
            "epoch_date_close_approach": 1483662300000,
            "relative_velocity": {
                "kilometers_per_second": "5.9402452461",
                "kilometers_per_hour": "21384.8828859864",
                "miles_per_hour": "13287.7345910175"
            },
            "miss_distance": {
                "astronomical": "0.1563584658",
                "lunar": "60.8234431962",
                "kilometers": "23390893.440147846",
                "miles": "14534427.2133624348"
            },
            "orbiting_body": "Earth"
        }
    ],
    "orbital_data": {
        "orbit_id": "5",
        "orbit_determination_date": "2017-04-06 08:21:17",
        "first_observation_date": "2016-12-25",
        "last_observation_date": "2017-01-26",
        "data_arc_in_days": 32,
        "observations_used": 25,
        "orbit_uncertainty": "7",
        "minimum_orbit_intersection": ".15223",
        "jupiter_tisserand_invariant": "3.719",
        "epoch_osculation": "2459000.5",
        "eccentricity": ".4452113467715611",
        "semi_major_axis": "1.979601020950217",
        "inclination": "9.152903669976755",
        "ascending_node_longitude": "136.4481439956799",
        "orbital_period": "1017.337212484611",
        "perihelion_distance": "1.098260184342613",
        "perihelion_argument": "314.4998110670159",
        "aphelion_distance": "2.86094185755782",
        "perihelion_time": "2458761.571398134817",
        "mean_anomaly": "84.54846202017514",
        "mean_motion": ".3538649678613283",
        "equinox": "J2000",
        "orbit_class": {
            "orbit_class_type": "AMO",
            "orbit_class_description": "Near-Earth asteroid orbits similar to that of 1221 Amor",
            "orbit_class_range": "1.017 AU < q (perihelion) < 1.3 AU"
        }
    },
    "is_sentry_object": false
}